STARLINK-2375           
1 47914U 21021BG  23172.09303414  .00035203  00000+0  23711-2 0  9998
2 47914  53.0542  57.5561 0001198  68.6906 291.4211 15.06389742126441
STARLINK-2376           
1 47915U 21021BH  23171.95895761  .00025821  00000+0  17466-2 0  9999
2 47915  53.0544  53.1618 0001013  74.0605 286.0495 15.06387994126500
STARLINK-2378           
1 47916U 21021BJ  23171.86634106  .00016054  00000+0  10945-2 0  9997
2 47916  53.0546  38.5748 0001034 108.5620 251.5482 15.06389605126219
STARLINK-2397           
1 47917U 21021BK  23172.07186020  .00028911  00000+0  19548-2 0  9992
2 47917  53.0543  47.6559 0001012  56.3414 303.7671 15.06344253126552
STARLINK-2398           
1 47918U 21021BL  23171.94651434  .00006283  00000+0  44028-3 0  9994
2 47918  53.0549  48.2160 0001214 100.5437 259.5689 15.06400666126564
STARLINK-2405           
1 47919U 21021BM  23172.39527710  .00025359  00000+0  17148-2 0  9991
2 47919  53.0540  56.2021 0001078  74.9679 285.1429 15.06408684125992
CAS500-1                
1 47932U 21022A   23172.76907522  .00009249  00000+0  42155-3 0  9998
2 47932  97.4032  72.3519 0002955 159.4232 200.7123 15.20869563124924
GRUS-1C                 
1 47933U 21022B   23172.75236186  .00001491  00000+0  14247-3 0  9991
2 47933  97.6634  69.6698 0020038  29.2850 330.9489 14.94617710122603
GRUS-1B                 
1 47934U 21022C   23172.72647772  .00002055  00000+0  19434-3 0  9996
2 47934  97.6641  69.6348 0019693  27.1833 333.0414 14.94614277122592
GRUS-1E                 
1 47935U 21022D   23172.73806731  .00002012  00000+0  19044-3 0  9990
2 47935  97.6655  69.8849 0019763  29.5357 330.6976 14.94613591122607
GRUS-1D                 
1 47936U 21022E   23172.76490320  .00001348  00000+0  12926-3 0  9990
2 47936  97.6645  69.7622 0020101  28.8849 331.3480 14.94614383122609
DMSAT-1                 
1 47940U 21022J   23172.70831542  .00010547  00000+0  55930-3 0  9997
2 47940  97.4976  71.3774 0013910 312.2663  47.7389 15.15467792123825
WILDTRACKCUBE-SIMBA     
1 47941U 21022K   23172.66413479  .00008652  00000+0  50140-3 0  9990
2 47941  97.4971  69.6373 0017894 325.4516  34.5550 15.12300209123688
HIBER-3                 
1 47942U 21022L   23172.53739640  .00012183  00000+0  64734-3 0  9996
2 47942  97.4938  70.3708 0015691 321.4109  38.6000 15.15336472123746
ELSA-D                  
1 47944U 21022N   23172.26352501  .00000798  00000+0  48500-4 0  9998
2 47944  97.4970  69.9967 0013029 316.9743  43.0468 15.13265583123707
UNISAT-7                
1 47945U 21022P   23172.53590586  .00005966  00000+0  35592-3 0  9994
2 47945  97.4952  69.8078 0015275 317.0893  42.9144 15.11422112123589
LACUNASAT-2B            
1 47948U 21022S   23172.45998574  .00026542  00000+0  11048-2 0  9999
2 47948  97.5057  73.7692 0012077 314.0009  46.0232 15.23659965123773
KEPLER-7 (C3PO)         
1 47949U 21022T   23172.28577000  .00017103  00000+0  85173-3 0  9992
2 47949  97.4950  70.6348 0015226 322.8469  37.1710 15.17546932123735
NANOSATC-BR2            
1 47950U 21022U   23172.76103734  .00011720  00000+0  62002-3 0  9991
2 47950  97.4936  70.3907 0016195 323.9078  36.1060 15.15493822123760
CUBESX-SIRIUS-HSE       
1 47951U 21022V   23172.70440769  .00009355  00000+0  52389-3 0  9996
2 47951  97.4970  69.9859 0017365 324.5893  35.4184 15.13514328123718
CUBESX-HSE              
1 47952U 21022W   23172.41300140  .00010298  00000+0  57529-3 0  9992
2 47952  97.4964  69.7469 0017409 324.5648  35.4426 15.13571731123679
KSU-CUBESAT             
1 47954U 21022Y   23172.66082679  .00011487  00000+0  62589-3 0  9998
2 47954  97.4976  70.3723 0016624 322.6004  37.4069 15.14445715123452
KEPLER-6 (ROCINANTE)    
1 47955U 21022Z   23172.66531308  .00014455  00000+0  77823-3 0  9992
2 47955  97.4963  70.4718 0016944 321.4203  38.5817 15.14810600123471
CHALLENGE ONE           
1 47956U 21022AA  23172.66264190  .00010221  00000+0  56853-3 0  9992
2 47956  97.4972  69.9554 0017854 325.7253  34.2824 15.13722751123497
BEESAT-6                
1 47957U 21022AB  23172.45837466  .00019080  00000+0  90313-3 0  9993
2 47957  97.4946  71.2856 0014465 322.3124  37.7096 15.19301696123581
GRBALPHA                
1 47959U 21022AD  23172.66385510  .00010555  00000+0  58817-3 0  9997
2 47959  97.4971  70.0770 0017222 323.9751  36.0318 15.13659808122538
ORBICRAFT-ZORKY         
1 47960U 21022AE  23172.75130927  .00009974  00000+0  54539-3 0  9999
2 47960  97.4997  70.5960 0016791 322.8171  37.1897 15.14354935123256
3B5GSAT (SATELIOT 1)    
1 47961U 21022AF  23172.52698498  .00023469  00000+0  10306-2 0  9995
2 47961  97.5019  72.7033 0013410 317.3471  42.6722 15.21852749122672
STECCO                  
1 47962U 21022AG  23172.67302301  .00019184  00000+0  88231-3 0  9999
2 47962  97.4969  72.9334 0010780 312.5748  47.4576 15.20337578122726
DIY-1 (ARDUIQUBE)       
1 47963U 21022AH  23172.47674170  .00319156  00000+0  31057-2 0  9999
2 47963  97.4937  81.3779 0005448 164.7639 195.3785 15.65250633123260
SMOG-1                  
1 47964U 21022AJ  23172.72016630  .00019860  00000+0  89092-3 0  9991
2 47964  97.4986  73.5849 0012491 305.8822  54.1253 15.21167917122764
VEERY-RL1               
1 47965U 21023A   23172.05837046  .00028672  00000+0  11255-2 0  9997
2 47965  44.9857  58.5633 0016537 191.2266 168.8249 15.25159236124047
CENTAURI-3 (TYVAK-0210) 
1 47966U 21023B   23172.20536597  .00024196  00000+0  11138-2 0  9999
2 47966  45.0009  74.5883 0010202 184.3209 175.7584 15.19919731123862
M2-A                    
1 47967U 21023C   23172.74547728  .00006752  00000+0  39100-3 0  9995
2 47967  44.9999  81.6609 0011264 185.6722 174.4029 15.12881741123825
MYRIOTA 7 (TYVAK-0152)  
1 47968U 21023D   23172.20357907  .00014791  00000+0  77942-3 0  9993
2 47968  45.0026  78.8515 0010876 182.4406 177.6421 15.15484838123814
GUNSMOKE-J 3            
1 47969U 21023E   23172.15276050  .00011215  00000+0  62606-3 0  9996
2 47969  45.0020  80.8186 0010794 174.4135 185.6865 15.13648141123789
GLOBAL-9                
1 47971U 21023G   23172.54304241  .00021214  00000+0  44316-3 0  9994
2 47971  44.9939 210.4510 0019158 358.0198   2.0613 15.45021881126588
M2-B                    
1 47973U 21023J   23172.67959841  .00011949  00000+0  67939-3 0  9992
2 47973  45.0001  82.0197 0011313 186.8419 173.2305 15.12930407 97947
STARLINK-2087           
1 47977U 21024A   23172.53672156  .00022998  00000+0  15577-2 0  9999
2 47977  53.0538 100.5641 0001260  73.4722 286.6405 15.06402337125168
STARLINK-1647           
1 47978U 21024B   23172.22617974  .00007771  00000+0  54000-3 0  9990
2 47978  53.0534 111.9596 0001327  90.6344 269.4797 15.06398756124975
STARLINK-2325           
1 47979U 21024C   23172.03128437 -.00000847  00000+0 -38008-4 0  9991
2 47979  53.0546  47.8428 0001142  85.7920 274.3200 15.06399467125852
STARLINK-2312           
1 47980U 21024D   23171.91888546  .00020533  00000+0  13936-2 0  9996
2 47980  53.0540  28.4646 0001127 104.5213 255.5901 15.06392637126114
STARLINK-2303           
1 47981U 21024E   23172.54685104  .00006709  00000+0  46876-3 0  9991
2 47981  53.0533 110.5199 0001155  82.4442 277.6678 15.06406778124499
STARLINK-2317           
1 47982U 21024F   23171.93038926  .00023309  00000+0  15792-2 0  9995
2 47982  53.0547  43.2869 0001229  71.4666 288.6456 15.06384845125856
STARLINK-2308           
1 47985U 21024J   23172.06817030  .00026563  00000+0  17957-2 0  9994
2 47985  53.0548  47.8317 0001311 104.4417 255.6718 15.06395246125796
STARLINK-2305           
1 47989U 21024N   23171.98752702  .00021094  00000+0  14310-2 0  9996
2 47989  53.0545  23.0404 0001211  75.8603 284.2520 15.06393470126143
STARLINK-2307           
1 47990U 21024P   23172.73575770  .00022387  00000+0  15161-2 0  9991
2 47990  53.0545  19.6726 0001249 105.2826 254.8301 15.06423081125779
STARLINK-2279           
1 47991U 21024Q   23172.01747256  .00024796  00000+0  16778-2 0  9994
2 47991  53.0541  37.9056 0001150 105.0276 255.0841 15.06397240125985
STARLINK-2229           
1 47992U 21024R   23172.76802262  .00014474  00000+0  98815-3 0  9991
2 47992  53.0545  29.6120 0001036 106.5387 253.5716 15.06417396125644
STARLINK-2273           
1 47993U 21024S   23172.44364876  .00026494  00000+0  17904-2 0  9995
2 47993  53.0543  70.9878 0001129 114.5506 245.5600 15.06409507125566
STARLINK-2290           
1 47994U 21024T   23172.04971959  .00017720  00000+0  12057-2 0  9994
2 47994  53.0548  87.7509 0001326  69.9459 290.1672 15.06393753125232
STARLINK-2309           
1 47995U 21024U   23171.99216226  .00020282  00000+0  13771-2 0  9998
2 47995  53.0535  53.3308 0001227  69.0305 291.0815 15.06386518125720
STARLINK-2260           
1 47996U 21024V   23172.76389797  .00018948  00000+0  12866-2 0  9999
2 47996  53.0549 334.8505 0000937 102.6988 257.4105 15.06426977126420
STARLINK-2266           
1 47997U 21024W   23172.49570789  .00001863  00000+0  14394-3 0  9990
2 47997  53.0541  85.7525 0001233  91.1099 269.0031 15.06405024124843
STARLINK-2296           
1 47998U 21024X   23172.10550154  .00026821  00000+0  18129-2 0  9993
2 47998  53.0544  62.7412 0001373  71.9778 288.1361 15.06394968125597
STARLINK-2218           
1 47999U 21024Y   23172.71914876  .00020583  00000+0  13959-2 0  9991
2 47999  53.0539  29.7480 0001143 105.1417 254.9698 15.06421222125638
STARLINK-2270           
1 48000U 21024Z   23172.71596864  .00015292  00000+0  10427-2 0  9996
2 48000  53.0562  14.9597 0001579 126.9712 233.1422 15.06420325125856
STARLINK-2265           
1 48002U 21024AB  23172.01382046  .00024124  00000+0  16332-2 0  9991
2 48002  53.0542  38.2310 0001055 113.3836 246.7264 15.06393458125922
STARLINK-2263           
1 48003U 21024AC  23172.53211514  .00010761  00000+0  74034-3 0  9996
2 48003  53.0543 110.5889 0001368 110.1206 249.9930 15.06393996124956
